{
  "norad_id": 54781,
  "name": "STARLINK-5443",
  "history": [
    {
      "epoch": "2026-05-03T10:24:22.452480Z",
      "apogee_km": 540.6928676559892,
      "perigee_km": 538.813276923348,
      "latitude_deg": 3.2425247271951425e-05,
      "longitude_deg": 125.9541272265348,
      "height_km": 540.4928723248953,
      "semi_major_axis_km": 6917.890072289669,
      "eccentricity": 0.00013585,
      "inclination_deg": 53.2167,
      "raan_deg": 143.385,
      "arg_perigee_deg": 80.4539,
      "mean_anomaly_deg": 279.6607,
      "mean_motion_rev_day": 15.08836832
    },
    {
      "epoch": "2026-05-04T18:12:04.808736Z",
      "apogee_km": 540.6487764708845,
      "perigee_km": 538.8252248843064,
      "latitude_deg": -1.6908196547774558e-05,
      "longitude_deg": 1.7746234168697064,
      "height_km": 540.5323252382777,
      "semi_major_axis_km": 6917.874000677595,
      "eccentricity": 0.0001318,
      "inclination_deg": 53.2166,
      "raan_deg": 137.4378,
      "arg_perigee_deg": 83.6799,
      "mean_anomaly_deg": 276.4343,
      "mean_motion_rev_day": 15.0884209
    },
    {
      "epoch": "2026-05-05T06:55:09.895872Z",
      "apogee_km": 540.6374716747396,
      "perigee_km": 538.8512747041814,
      "latitude_deg": 5.1252343719221166e-05,
      "longitude_deg": 168.10176274573027,
      "height_km": 540.5550179139469,
      "semi_major_axis_km": 6917.88137318946,
      "eccentricity": 0.0001291,
      "inclination_deg": 53.2166,
      "raan_deg": 135.0584,
      "arg_perigee_deg": 84.5339,
      "mean_anomaly_deg": 275.5801,
      "mean_motion_rev_day": 15.08839678
    },
    {
      "epoch": "2026-05-06T09:56:43.333152Z",
      "apogee_km": 540.6545007597515,
      "perigee_km": 538.8378646359752,
      "latitude_deg": 6.4369287112468184e-06,
      "longitude_deg": 116.54718657445102,
      "height_km": 540.5584236469497,
      "semi_major_axis_km": 6917.883182697863,
      "eccentricity": 0.0001313,
      "inclination_deg": 53.2165,
      "raan_deg": 130.0031,
      "arg_perigee_deg": 84.7291,
      "mean_anomaly_deg": 275.3851,
      "mean_motion_rev_day": 15.08839086
    },
    {
      "epoch": "2026-05-07T09:47:30.551136Z",
      "apogee_km": 540.6505148827782,
      "perigee_km": 538.8518639535305,
      "latitude_deg": -1.30144910510686e-05,
      "longitude_deg": 113.41018798805419,
      "height_km": 540.5480923623713,
      "semi_major_axis_km": 6917.888189418154,
      "eccentricity": 0.00013,
      "inclination_deg": 53.2166,
      "raan_deg": 125.5422,
      "arg_perigee_deg": 83.6918,
      "mean_anomaly_deg": 276.4222,
      "mean_motion_rev_day": 15.08837448
    },
    {
      "epoch": "2026-05-08T15:59:49.944192Z",
      "apogee_km": 540.6540675705792,
      "perigee_km": 538.8360481657728,
      "latitude_deg": -3.1643354035757635e-05,
      "longitude_deg": 13.438974648093682,
      "height_km": 540.522855645653,
      "semi_major_axis_km": 6917.882057868176,
      "eccentricity": 0.0001314,
      "inclination_deg": 53.2167,
      "raan_deg": 119.8923,
      "arg_perigee_deg": 82.5464,
      "mean_anomaly_deg": 277.5677,
      "mean_motion_rev_day": 15.08839454
    },
    {
      "epoch": "2026-05-09T15:50:37.543200Z",
      "apogee_km": 540.7117186816822,
      "perigee_km": 538.8065300890257,
      "latitude_deg": 1.651578798124784e-05,
      "longitude_deg": 10.301035791041139,
      "height_km": 540.5427618992919,
      "semi_major_axis_km": 6917.896124385354,
      "eccentricity": 0.0001377,
      "inclination_deg": 53.2172,
      "raan_deg": 115.432,
      "arg_perigee_deg": 83.2458,
      "mean_anomaly_deg": 276.8691,
      "mean_motion_rev_day": 15.08834852
    },
    {
      "epoch": "2026-05-10T15:41:24.821664Z",
      "apogee_km": 540.7371765952767,
      "perigee_km": 538.7724953138659,
      "latitude_deg": 2.6458151452861706e-05,
      "longitude_deg": 7.164208683785426,
      "height_km": 540.5340454177204,
      "semi_major_axis_km": 6917.8918359545705,
      "eccentricity": 0.000142,
      "inclination_deg": 53.2173,
      "raan_deg": 110.9715,
      "arg_perigee_deg": 83.1941,
      "mean_anomaly_deg": 276.9213,
      "mean_motion_rev_day": 15.08836255
    },
    {
      "epoch": "2026-05-11T15:32:11.942016Z",
      "apogee_km": 540.7073419060589,
      "perigee_km": 538.8007711308819,
      "latitude_deg": -1.4807304270182108e-05,
      "longitude_deg": 4.02820501162618,
      "height_km": 540.5525739294658,
      "semi_major_axis_km": 6917.89105651847,
      "eccentricity": 0.0001378,
      "inclination_deg": 53.2169,
      "raan_deg": 106.5112,
      "arg_perigee_deg": 84.1524,
      "mean_anomaly_deg": 275.9625,
      "mean_motion_rev_day": 15.0883651
    }
  ]
}